#dP2022 10 22  6  0  0.00000000      96 __u+U ITR00 EXT  IAC
## 2232 540000.00000000   900.00000000 59874 0.2500000000000
+  117   C06C07C08C09C10C11C12C13C14C16C19C20C21C22C23C24C25
+        C26C27C28C29C30C32C33C34C35C36C37C38C39C40C41C42C43
+        C44C45C46E01E02E03E04E05E07E08E09E10E11E12E13E14E15
+        E18E19E24E25E26E27E30E31E33E34E36G01G02G03G04G05G06
+        G07G08G09G10G11G12G13G14G15G16G17G18G19G20G21G22G23
+        G24G25G26G27G28G29G30G31G32J02J03J04R01R02R03R04R05
+        R07R08R09R11R12R13R14R15R17R18R19R20R21R22R24  0  0
++         9 10 10  9  9  8  9  9  8 10  8  8  9  8  8  8  7
++         9  9  8  8 10  9  9  9  9  9  7  8  9 11  8  7 10
++         8  7  8  9  9  8  9  7  9  8  8  9  9  8  8  8  8
++         8  7 10  9 10  9  8  8 10  8  7 10  7  8  8  7  9
++         8  8  9  8 10  9  8  8  8  9  9 10  8  7  9  8  7
++         9  9  8 10  9  8  8  9  8 11  8  9  9  9  8  9  7
++         8  9 10  9  9  9  7  8  8  9  9  8  8  7  9  0  0
%c M  cc GPS ccc cccc cccc cccc cccc ccccc ccccc ccccc ccccc
%c cc cc ccc ccc cccc cccc cccc cccc ccccc ccccc ccccc ccccc
%f  0.0000000  0.000000000  0.00000000000  0.000000000000000
%f  0.0000000  0.000000000  0.00000000000  0.000000000000000
%i    0    0    0    0      0      0      0      0         0
%i    0    0    0    0      0      0      0      0         0
/* IAC                                ULTRA-RAPID PREDICTION
/* S/V CLOCKS ARE ALIGNED TO GNSS TIME                      
/* G:C1WC2W R:C1PC2P E:C1XC5X C:C2IC6I J:C1CC2S             
/* PCV:IGS14_2218 OL/AL:FES2004  NONE     YN ORB:CoN CLK:CoN
*  2022 10 23  1 45  0.00000000
PC06 -15239.758298  38968.306961  -6150.078006    887.496645
PC07  -3234.701729  31970.390555 -27179.021826    318.387904
PC08 -14742.930003  20385.178839  33781.566740    499.521779
PC09  -9427.145139  38264.939360 -15331.568548   -827.205955
PC10   4165.259572  34777.703384 -22826.045275     79.743254
PC11  13593.639714   7325.258020  23313.620387   -335.674998
PC12   2237.963274  22998.835404  15671.765389   -471.477424
PC13  -4192.712827  22507.360350  35511.898020    114.007832
PC14  21500.526255  14531.327680 -10186.232878    591.741259
PC16 -18376.974415  38085.476570  -1289.580812    126.201974
PC19 -20824.248899  -5913.947040  17632.752070   -921.160140
PC20 -19374.081563 -19900.476387   2844.269049    857.629373
PC21   6063.337483  22891.898843  14755.876654   -661.376737
PC22 -10333.193640  12113.680992  22906.179241   -835.492299
PC23  21762.293949 -12635.643037  12078.300964   -687.973285
PC24  16306.431482  11432.302507 -19568.530726   -742.538568
PC25  27474.883057  -2295.611285  -4405.546010     13.658439
PC26  -1962.479378  16692.013421 -22283.752183    -25.322261
PC27   3918.838517 -26397.095740  -8164.009274     40.044001
PC28  14779.677330 -22007.637855   8737.027106     27.416930
PC29 -17239.062897   4431.380280 -21494.968625     30.465594
PC30  -9620.612045 -16269.585399 -20528.928428      0.659844
PC32  -6169.674804 -22831.510674 -14810.329604   -748.080344
PC33  20892.397980   5870.474055 -17543.058483   -929.194529
PC34  10312.546972  15257.389350  20963.519008     22.739417
PC35 -14646.573242  21547.544027 -10040.520482     54.241062
PC36 -27425.027795   1209.883872   5008.953285   -818.810242
PC37   3923.408812 -16727.646497  22009.376504   -595.706210
PC38 -22320.876554  21276.042881  28687.685750     32.965060
PC39 -18829.386819  37656.676290   3798.729307     -0.687953
PC40  -6850.674071  27170.420658 -31436.678304     -6.572058
PC41  10741.573651 -11700.389839 -22901.556135   -200.014564
PC42  18868.682390  20481.998617  -1625.048127   -524.264018
PC43  17233.985945  -3480.707462  21660.984187     21.028503
PC44  -3095.889282  26595.743402   7902.614589     90.167205
PC45 -21488.675907  12723.899860 -12422.193183    -13.146050
PC46 -17846.356923 -10419.316229  18736.175410     -8.073285
PE01  27747.163653  10320.279688    240.588681   -551.651231
PE02 -27770.402812 -10207.903716   -405.644335    332.393814
PE03 -17257.248005 -10363.973713  21694.717010   -612.488574
PE04  14470.957947 -11705.213504 -23017.672892  -1142.488795
PE05  -9955.366116 -26822.950023   7584.409837   -131.905913
PE07  -3008.463271  27430.335594  10697.656887   -715.449159
PE08 -14289.959576  11749.115295  23097.457921   -619.907754
PE09   3001.113219 -27361.959599 -10906.027910   -702.796281
PE10  20755.722810 -20742.207565  -3957.085702   -485.575547
PE11  13213.967593 -22618.534476 -13788.515387   1666.539833
PE12  24495.470119 -15622.664653   5647.701364   -236.862741
PE13 -13915.609105  22610.999890  13086.408759    430.672336
PE14 -19657.527142 -10087.008829 -23302.131362     35.430963
PE15 -24493.533754  15529.188965  -5901.541022    712.300152
PE18  15542.340098  -2518.035382  18663.389584   -829.963939
PE19  16703.758966  13236.960419 -20545.114330  -4194.139527
PE24   5451.699426 -15837.358161  24398.617154   -906.178525
PE25 -16716.300342 -18175.843350  16326.671476   -590.864165
PE26   5646.945757  15940.604110  24296.708475  -1758.630519
PE27  -4233.484452  16209.083119 -24394.525098   -421.802690
PE30 -23331.387531   4159.401131 -17726.349019   -938.196003
PE31  22796.605526  -4791.077610  18280.119414   -506.384342
PE33  20554.521974    677.018327  21295.204732   -454.957452
PE34 -20643.244127   -496.903903 -21204.870436    -10.834122
PE36  -4704.933233 -16369.841927 -24205.615468   -449.872340
PG01   8450.733172 -18922.249054 -16718.378027    263.250119
PG02  -8007.651320  20502.778717  15648.856517   -641.207287
PG03    280.186787 -15899.269834 -21417.445784   -367.136544
PG04   1262.665658 -26226.166627  -3630.355571    -99.149888
PG05 -13135.805424  10063.365345  20624.724682   -101.430106
PG06 -21995.638099   3509.637558 -14458.963309    498.783690
PG07  -7587.896761 -13701.517520  21849.331425    295.918080
PG08   7030.234084 -21664.429859  13310.322076    -90.143891
PG09  -7713.740492 -24299.929861   7292.711320   -279.442884
PG10  24101.788626  11563.142195    378.406715     -8.665454
PG11 -23624.362776  11461.740883  -3855.834892    -29.180593
PG12  -1888.826896  15903.220968 -21473.126691   -295.437998
PG13 -12862.496794  14934.043061  17541.057132    411.054481
PG14 -22930.769294 -13384.031178   1955.473776    -92.152517
PG15  -4529.223078  22621.347557  12457.624887    -18.650587
PG16  18773.977415  -3662.941148  18341.924418   -526.527302
PG17 -12392.029890 -14642.659638 -17900.567788    671.277420
PG18   8450.184614  12331.379096  21952.469407      5.074479
PG19 -14840.320358  -3265.314322 -22038.173529    227.422033
PG20 -23164.257367   2770.759672  12491.618676    476.176600
PG21  15130.837391 -19602.825805  -7885.040963    157.535071
PG22  14997.123992   -250.727423 -21499.804701    350.689095
PG23  18658.111100  15899.719975  10381.577627     -1.110693
PG24 -10526.875373  20799.874627 -12655.495656     89.321665
PG25  10617.697193  18000.276226 -16842.349470    385.152248
PG26  24636.609384   1830.306378  10084.673640    233.412056
PG27  12863.379601 -11102.535677  20086.406279    193.232556
PG28 -23888.762936  -8736.747773  -6675.340249    325.360147
PG29   4411.789294  25366.720732   6298.097394   -561.730345
PG30 -17763.696702  -5111.291599  19250.023461   -537.156400
PG31  22982.866481  -3913.821905 -13292.078321   -197.714202
PG32  14534.605640  11124.599778 -19166.335307   -271.973691
PJ02 -27271.105356  16239.222270 -23179.755260     -7.898940
PJ03 -25813.377689  32330.297393  -3565.481609     -3.322146
PJ04 -26582.210790  26142.590761  25748.945171    112.062810
PR01  14746.456044   5961.742845 -19945.972867     16.678761
PR02   4914.320581 -12236.543112 -21785.542671    -23.074922
PR03  -7041.765256 -22230.129481 -10228.926345     65.952109
PR04 -14674.783587 -19728.264866   6779.512625    162.176041
PR05 -14322.930048  -6447.197765  20091.969958    101.682231
PR07   7483.808341  22459.004366   9602.689841     43.012041
PR08  14801.679837  19642.661355  -6780.744381    -67.754958
PR09 -17066.075228   8639.623132 -16896.610159     83.520737
PR11  17849.674626   7664.858397 -16511.734385     23.796559
PR12  25496.069475   -453.270886    985.914423     22.256362
PR13  18319.674689  -7821.896157  15923.071856    -28.083997
PR14  -1087.315810 -11115.501794  22947.613360     24.210523
PR15 -18567.400703  -7614.956205  15769.102049     93.066508
PR17   6177.959111 -21420.739323 -12429.322803    571.495245
PR18  -5159.745286 -10909.474172 -22448.143345     48.397038
PR19 -13544.203888   3568.443628 -21311.931855   -208.253579
PR20 -15551.034596  19439.696075  -5625.341251    -80.730867
PR21  -5239.653742  20753.469017  13850.195589   -343.741881
PR22   5575.282138  10736.540103  22486.074727     14.751280
PR24  14921.782405 -20104.581953   4966.508447    121.975022
EOF
